[{"OBJECT_NAME":"ASIASAT 8 (AMOS-7)","OBJECT_ID":"2014-046A","EPOCH":"2026-03-07T00:43:36.346656","MEAN_MOTION":1.00272101,"ECCENTRICITY":0.0001296,"INCLINATION":0.0395,"RA_OF_ASC_NODE":264.1299,"ARG_OF_PERICENTER":91.4506,"MEAN_ANOMALY":285.3688,"EPHEMERIS_TYPE":0,"CLASSIFICATION_TYPE":"U","NORAD_CAT_ID":40107,"ELEMENT_SET_NO":999,"REV_AT_EPOCH":10112,"BSTAR":0,"MEAN_MOTION_DOT":-3.36e-6,"MEAN_MOTION_DDOT":0},{"OBJECT_NAME":"ASIASAT 6","OBJECT_ID":"2014-052A","EPOCH":"2026-03-06T15:44:48.785280","MEAN_MOTION":1.0026693,"ECCENTRICITY":9.556e-5,"INCLINATION":0.0201,"RA_OF_ASC_NODE":145.3568,"ARG_OF_PERICENTER":233.4539,"MEAN_ANOMALY":141.6723,"EPHEMERIS_TYPE":0,"CLASSIFICATION_TYPE":"U","NORAD_CAT_ID":40141,"ELEMENT_SET_NO":999,"REV_AT_EPOCH":4205,"BSTAR":0,"MEAN_MOTION_DOT":0,"MEAN_MOTION_DDOT":0},{"OBJECT_NAME":"OPTUS 10","OBJECT_ID":"2014-054A","EPOCH":"2026-03-06T09:47:38.627808","MEAN_MOTION":1.00271108,"ECCENTRICITY":0.00020534,"INCLINATION":0.0186,"RA_OF_ASC_NODE":101.9153,"ARG_OF_PERICENTER":247.4088,"MEAN_ANOMALY":117.7032,"EPHEMERIS_TYPE":0,"CLASSIFICATION_TYPE":"U","NORAD_CAT_ID":40146,"ELEMENT_SET_NO":999,"REV_AT_EPOCH":4200,"BSTAR":0,"MEAN_MOTION_DOT":-1.52e-6,"MEAN_MOTION_DDOT":0},{"OBJECT_NAME":"MEASAT-3B","OBJECT_ID":"2014-054B","EPOCH":"2026-03-04T12:35:38.801760","MEAN_MOTION":1.00273327,"ECCENTRICITY":0.000385,"INCLINATION":0.042,"RA_OF_ASC_NODE":38.3333,"ARG_OF_PERICENTER":349.4808,"MEAN_ANOMALY":54.8719,"EPHEMERIS_TYPE":0,"CLASSIFICATION_TYPE":"U","NORAD_CAT_ID":40147,"ELEMENT_SET_NO":999,"REV_AT_EPOCH":4185,"BSTAR":0,"MEAN_MOTION_DOT":-2.53e-6,"MEAN_MOTION_DDOT":0},{"OBJECT_NAME":"CZ-3B DEB","OBJECT_ID":"2010-042M","EPOCH":"2026-03-05T09:39:50.218848","MEAN_MOTION":1.89897159,"ECCENTRICITY":0.7238995,"INCLINATION":27.2093,"RA_OF_ASC_NODE":281.3546,"ARG_OF_PERICENTER":308.9785,"MEAN_ANOMALY":327.4061,"EPHEMERIS_TYPE":0,"CLASSIFICATION_TYPE":"U","NORAD_CAT_ID":40160,"ELEMENT_SET_NO":999,"REV_AT_EPOCH":8524,"BSTAR":0,"MEAN_MOTION_DOT":-3.29e-6,"MEAN_MOTION_DDOT":0},{"OBJECT_NAME":"CZ-3B DEB","OBJECT_ID":"2010-042P","EPOCH":"2026-03-05T22:55:45.478272","MEAN_MOTION":1.92050786,"ECCENTRICITY":0.719781,"INCLINATION":27.0556,"RA_OF_ASC_NODE":281.1982,"ARG_OF_PERICENTER":315.5374,"MEAN_ANOMALY":5.3933,"EPHEMERIS_TYPE":0,"CLASSIFICATION_TYPE":"U","NORAD_CAT_ID":40162,"ELEMENT_SET_NO":999,"REV_AT_EPOCH":8622,"BSTAR":0,"MEAN_MOTION_DOT":-3.5e-6,"MEAN_MOTION_DDOT":0},{"OBJECT_NAME":"CZ-3B DEB","OBJECT_ID":"2010-042R","EPOCH":"2026-03-07T03:00:30.718656","MEAN_MOTION":1.89872332,"ECCENTRICITY":0.7273593,"INCLINATION":27.0642,"RA_OF_ASC_NODE":261.9466,"ARG_OF_PERICENTER":339.2112,"MEAN_ANOMALY":235.0713,"EPHEMERIS_TYPE":0,"CLASSIFICATION_TYPE":"U","NORAD_CAT_ID":40164,"ELEMENT_SET_NO":999,"REV_AT_EPOCH":8532,"BSTAR":0,"MEAN_MOTION_DOT":-6.9e-7,"MEAN_MOTION_DDOT":0},{"OBJECT_NAME":"CZ-3B DEB","OBJECT_ID":"2010-042S","EPOCH":"2026-03-06T15:02:14.294976","MEAN_MOTION":1.92981639,"ECCENTRICITY":0.73938761,"INCLINATION":27.3232,"RA_OF_ASC_NODE":140.1101,"ARG_OF_PERICENTER":141.8253,"MEAN_ANOMALY":2.0808,"EPHEMERIS_TYPE":0,"CLASSIFICATION_TYPE":"U","NORAD_CAT_ID":40165,"ELEMENT_SET_NO":999,"REV_AT_EPOCH":10188,"BSTAR":-0.022972746,"MEAN_MOTION_DOT":-6.62e-6,"MEAN_MOTION_DDOT":0},{"OBJECT_NAME":"CZ-3B DEB","OBJECT_ID":"2010-042U","EPOCH":"2026-02-25T19:53:14.603136","MEAN_MOTION":1.93604186,"ECCENTRICITY":0.7145376,"INCLINATION":27.1668,"RA_OF_ASC_NODE":301.836,"ARG_OF_PERICENTER":281.4117,"MEAN_ANOMALY":12.3487,"EPHEMERIS_TYPE":0,"CLASSIFICATION_TYPE":"U","NORAD_CAT_ID":40167,"ELEMENT_SET_NO":999,"REV_AT_EPOCH":9340,"BSTAR":0,"MEAN_MOTION_DOT":1.77e-6,"MEAN_MOTION_DDOT":0},{"OBJECT_NAME":"CZ-3B DEB","OBJECT_ID":"2010-042W","EPOCH":"2026-03-06T13:06:01.865088","MEAN_MOTION":1.94001778,"ECCENTRICITY":0.72044492,"INCLINATION":26.5175,"RA_OF_ASC_NODE":262.3079,"ARG_OF_PERICENTER":354.7856,"MEAN_ANOMALY":209.3472,"EPHEMERIS_TYPE":0,"CLASSIFICATION_TYPE":"U","NORAD_CAT_ID":40169,"ELEMENT_SET_NO":999,"REV_AT_EPOCH":9580,"BSTAR":0,"MEAN_MOTION_DOT":4.6e-7,"MEAN_MOTION_DDOT":0},{"OBJECT_NAME":"CZ-3C DEB","OBJECT_ID":"2010-057Y","EPOCH":"2026-03-06T08:49:52.851648","MEAN_MOTION":2.23772545,"ECCENTRICITY":0.71251994,"INCLINATION":19.7098,"RA_OF_ASC_NODE":142.5449,"ARG_OF_PERICENTER":76.3797,"MEAN_ANOMALY":358.0819,"EPHEMERIS_TYPE":0,"CLASSIFICATION_TYPE":"U","NORAD_CAT_ID":40170,"ELEMENT_SET_NO":999,"REV_AT_EPOCH":10342,"BSTAR":-0.0029164063,"MEAN_MOTION_DOT":-1.61e-6,"MEAN_MOTION_DDOT":0},{"OBJECT_NAME":"CZ-3C DEB","OBJECT_ID":"2010-057AG","EPOCH":"2026-03-05T23:26:54.348288","MEAN_MOTION":2.09768888,"ECCENTRICITY":0.72171886,"INCLINATION":19.639,"RA_OF_ASC_NODE":321.8982,"ARG_OF_PERICENTER":155.1066,"MEAN_ANOMALY":354.7414,"EPHEMERIS_TYPE":0,"CLASSIFICATION_TYPE":"U","NORAD_CAT_ID":40178,"ELEMENT_SET_NO":999,"REV_AT_EPOCH":3000,"BSTAR":0.012140417,"MEAN_MOTION_DOT":9.6e-7,"MEAN_MOTION_DDOT":0},{"OBJECT_NAME":"CZ-3B DEB","OBJECT_ID":"2011-077C","EPOCH":"2026-03-07T01:00:51.264000","MEAN_MOTION":1.91914007,"ECCENTRICITY":0.7418524,"INCLINATION":26.3448,"RA_OF_ASC_NODE":326.3325,"ARG_OF_PERICENTER":100.6112,"MEAN_ANOMALY":342.5439,"EPHEMERIS_TYPE":0,"CLASSIFICATION_TYPE":"U","NORAD_CAT_ID":40179,"ELEMENT_SET_NO":999,"REV_AT_EPOCH":8614,"BSTAR":0.003748,"MEAN_MOTION_DOT":-1.36e-6,"MEAN_MOTION_DDOT":0},{"OBJECT_NAME":"CZ-3B DEB","OBJECT_ID":"2011-077H","EPOCH":"2026-03-06T21:19:15.067776","MEAN_MOTION":1.92594621,"ECCENTRICITY":0.7536044,"INCLINATION":21.5946,"RA_OF_ASC_NODE":230.346,"ARG_OF_PERICENTER":26.6683,"MEAN_ANOMALY":357.3739,"EPHEMERIS_TYPE":0,"CLASSIFICATION_TYPE":"U","NORAD_CAT_ID":40184,"ELEMENT_SET_NO":999,"REV_AT_EPOCH":7801,"BSTAR":0.0017002,"MEAN_MOTION_DOT":1.016e-5,"MEAN_MOTION_DDOT":0},{"OBJECT_NAME":"CZ-3B DEB","OBJECT_ID":"2011-077J","EPOCH":"2026-03-05T15:46:57.029664","MEAN_MOTION":1.92922225,"ECCENTRICITY":0.7491911,"INCLINATION":25.1807,"RA_OF_ASC_NODE":270.4515,"ARG_OF_PERICENTER":208.3987,"MEAN_ANOMALY":72.6862,"EPHEMERIS_TYPE":0,"CLASSIFICATION_TYPE":"U","NORAD_CAT_ID":40185,"ELEMENT_SET_NO":999,"REV_AT_EPOCH":8333,"BSTAR":0.0025032474,"MEAN_MOTION_DOT":5.33e-6,"MEAN_MOTION_DDOT":0},{"OBJECT_NAME":"CZ-3B DEB","OBJECT_ID":"2011-077K","EPOCH":"2026-03-06T12:49:04.217376","MEAN_MOTION":1.88722048,"ECCENTRICITY":0.72867504,"INCLINATION":25.7467,"RA_OF_ASC_NODE":110.5712,"ARG_OF_PERICENTER":210.42,"MEAN_ANOMALY":87.1959,"EPHEMERIS_TYPE":0,"CLASSIFICATION_TYPE":"U","NORAD_CAT_ID":40186,"ELEMENT_SET_NO":999,"REV_AT_EPOCH":9718,"BSTAR":0,"MEAN_MOTION_DOT":-1.94e-6,"MEAN_MOTION_DDOT":0},{"OBJECT_NAME":"CZ-3B DEB","OBJECT_ID":"2011-077L","EPOCH":"2026-03-06T06:27:43.837632","MEAN_MOTION":1.90999394,"ECCENTRICITY":0.73917299,"INCLINATION":26.638,"RA_OF_ASC_NODE":21.3362,"ARG_OF_PERICENTER":353.9439,"MEAN_ANOMALY":0.3986,"EPHEMERIS_TYPE":0,"CLASSIFICATION_TYPE":"U","NORAD_CAT_ID":40187,"ELEMENT_SET_NO":999,"REV_AT_EPOCH":9264,"BSTAR":0.001330186,"MEAN_MOTION_DOT":-2.79e-6,"MEAN_MOTION_DDOT":0}]
