ASIASAT 8 (AMOS-7)      
1 40107U 14046A   26066.03028179 -.00000336  00000+0  00000+0 0  9998
2 40107   0.0395 264.1299 0001296  91.4506 285.3688  1.00272101101126
ASIASAT 6               
1 40141U 14052A   26065.65612020  .00000000  00000+0  00000+0 0  9991
2 40141   0.0201 145.3568 0000955 233.4539 141.6723  1.00266930 42057
OPTUS 10                
1 40146U 14054A   26065.40808597 -.00000152  00000+0  00000+0 0  9996
2 40146   0.0186 101.9153 0002053 247.4088 117.7032  1.00271108 42002
MEASAT-3B               
1 40147U 14054B   26063.52475465 -.00000253  00000+0  00000+0 0  9994
2 40147   0.0420  38.3333 0003850 349.4808  54.8719  1.00273327 41856
CZ-3B DEB               
1 40160U 10042M   26064.40266457 -.00000329  00000+0  00000+0 0  9993
2 40160  27.2093 281.3546 7238995 308.9785 327.4061  1.89897159 85247
CZ-3B DEB               
1 40162U 10042P   26064.95538748 -.00000350  00000+0  00000+0 0  9994
2 40162  27.0556 281.1982 7197810 315.5374   5.3933  1.92050786 86221
CZ-3B DEB               
1 40164U 10042R   26066.12535554 -.00000069  00000+0  00000+0 0  9996
2 40164  27.0642 261.9466 7273593 339.2112 235.0713  1.89872332 85321
CZ-3B DEB               
1 40165U 10042S   26065.62655434 -.00000662  00000+0 -22973-1 0  9996
2 40165  27.3232 140.1101 7393876 141.8253   2.0808  1.92981639101886
CZ-3B DEB               
1 40167U 10042U   26056.82864124  .00000177  00000+0  00000+0 0  9992
2 40167  27.1668 301.8360 7145376 281.4117  12.3487  1.93604186 93407
CZ-3B DEB               
1 40169U 10042W   26065.54585492  .00000046  00000+0  00000+0 0  9996
2 40169  26.5175 262.3079 7204449 354.7856 209.3472  1.94001778 95801
CZ-3C DEB               
1 40170U 10057Y   26065.36797282 -.00000161  00000+0 -29164-2 0  9991
2 40170  19.7098 142.5449 7125199  76.3797 358.0819  2.23772545103421
CZ-3C DEB               
1 40178U 10057AG  26064.97701792  .00000096  00000+0  12140-1 0  9996
2 40178  19.6390 321.8982 7217188 155.1066 354.7414  2.09768888 30008
CZ-3B DEB               
1 40179U 11077C   26066.04226000 -.00000136  00000+0  37480-2 0  9995
2 40179  26.3448 326.3325 7418524 100.6112 342.5439  1.91914007 86147
CZ-3B DEB               
1 40184U 11077H   26065.88836884  .00001016  00000+0  17002-2 0  9994
2 40184  21.5946 230.3460 7536044  26.6683 357.3739  1.92594621 78016
CZ-3B DEB               
1 40185U 11077J   26064.65760451  .00000533  00000+0  25032-2 0  9990
2 40185  25.1807 270.4515 7491911 208.3987  72.6862  1.92922225 83338
CZ-3B DEB               
1 40186U 11077K   26065.53407659 -.00000194  00000+0  00000+0 0  9996
2 40186  25.7467 110.5712 7286750 210.4200  87.1959  1.88722048 97187
CZ-3B DEB               
1 40187U 11077L   26065.26925738 -.00000279  00000+0  13302-2 0  9996
2 40187  26.6380  21.3362 7391729 353.9439   0.3986  1.90999394 92648
